{"type":"FeatureCollection","features":[{"type":"Feature","properties":{"osmId":"way/152930184","kind":"corridor","name":"IITK Academic Area Corridors","level":"0","highway":"footway"},"geometry":{"type":"LineString","coordinates":[[80.232603,26.512382],[80.232367,26.512376],[80.231344,26.51237]]}},{"type":"Feature","properties":{"osmId":"way/152930189","kind":"corridor","name":"IITK Academic Area Corridors","level":"0","highway":"footway"},"geometry":{"type":"LineString","coordinates":[[80.233534,26.511214],[80.233341,26.511031],[80.233282,26.510979],[80.233227,26.51093],[80.233202,26.510899]]}},{"type":"Feature","properties":{"osmId":"way/152930190","kind":"corridor","name":"IITK Academic Area Corridors","level":"0","highway":"footway"},"geometry":{"type":"LineString","coordinates":[[80.233102,26.511253],[80.23311,26.511244],[80.233243,26.511122],[80.233341,26.511031],[80.233528,26.510877],[80.233546,26.510869],[80.233577,26.51083],[80.233583,26.510786],[80.233599,26.510713]]}},{"type":"Feature","properties":{"osmId":"way/152930191","kind":"corridor","name":"IITK Academic Area Corridors","level":"1","highway":"footway"},"geometry":{"type":"LineString","coordinates":[[80.234792,26.511032],[80.234778,26.511655],[80.234747,26.512034],[80.234766,26.512034],[80.234729,26.512385],[80.234176,26.51238],[80.233999,26.512386],[80.233449,26.512375],[80.233022,26.512373],[80.232823,26.512375],[80.232648,26.512377],[80.232655,26.511734]]}},{"type":"Feature","properties":{"osmId":"way/1488772205","kind":"room","name":"Lecture Hall 13","ref":null,"level":"1","indoor":"room"},"geometry":{"type":"Polygon","coordinates":[[[80.233362,26.511067],[80.233362,26.51104],[80.233417,26.510991],[80.23345,26.510993],[80.233506,26.51105],[80.233506,26.511071],[80.233441,26.511124],[80.233422,26.511123],[80.233416,26.511117],[80.233408,26.51111],[80.233403,26.511105],[80.233381,26.511085],[80.233371,26.511076],[80.233386,26.511061],[80.233362,26.511067]]]}},{"type":"Feature","properties":{"osmId":"way/1488772206","kind":"room","name":"Lecture Hall 11","ref":null,"level":"1","indoor":"room"},"geometry":{"type":"Polygon","coordinates":[[[80.233474,26.511177],[80.233473,26.511153],[80.233478,26.51115],[80.233534,26.511101],[80.233559,26.511103],[80.233606,26.511151],[80.233609,26.511172],[80.233556,26.511219],[80.233529,26.511225],[80.233515,26.511215],[80.233494,26.5112],[80.233483,26.511186],[80.233474,26.511177]]]}},{"type":"Feature","properties":{"osmId":"way/1488772207","kind":"room","name":"Lecture Hall 9","ref":null,"level":"0","indoor":"room"},"geometry":{"type":"Polygon","coordinates":[[[80.233362,26.511067],[80.233362,26.51104],[80.233417,26.510991],[80.23345,26.510993],[80.233506,26.51105],[80.233506,26.511071],[80.233441,26.511124],[80.233422,26.511123],[80.233416,26.511117],[80.233408,26.51111],[80.233403,26.511105],[80.233381,26.511085],[80.233371,26.511075],[80.233362,26.511067]]]}},{"type":"Feature","properties":{"osmId":"way/1488772208","kind":"room","name":"Lecture Hall 12","ref":null,"level":"1","indoor":"room"},"geometry":{"type":"Polygon","coordinates":[[[80.233216,26.511168],[80.23329,26.511102],[80.233311,26.511102],[80.233319,26.511109],[80.233286,26.511128],[80.233328,26.511116],[80.233335,26.511123],[80.23336,26.511145],[80.233367,26.511151],[80.233373,26.511157],[80.233379,26.511162],[80.233378,26.511175],[80.233372,26.511181],[80.233321,26.511224],[80.233296,26.511243],[80.233216,26.511168]]]}},{"type":"Feature","properties":{"osmId":"way/1488772209","kind":"room","name":"Lecture Hall 8","ref":null,"level":"0","indoor":"room"},"geometry":{"type":"Polygon","coordinates":[[[80.233214,26.511168],[80.233288,26.511102],[80.233309,26.511102],[80.233319,26.511109],[80.233325,26.511116],[80.233335,26.511123],[80.233341,26.511141],[80.23336,26.511145],[80.233365,26.511151],[80.233373,26.511157],[80.233379,26.511162],[80.233378,26.511175],[80.233372,26.511181],[80.233321,26.511224],[80.233296,26.511243],[80.233214,26.511168]]]}},{"type":"Feature","properties":{"osmId":"way/1488772210","kind":"room","name":"Lecture Hall 10","ref":null,"level":"1","indoor":"room"},"geometry":{"type":"Polygon","coordinates":[[[80.233336,26.511285],[80.233335,26.511263],[80.233399,26.51121],[80.233423,26.511209],[80.233431,26.511217],[80.233442,26.511233],[80.233474,26.511255],[80.233495,26.511271],[80.233424,26.511337],[80.233396,26.511337],[80.233336,26.511285]]]}},{"type":"Feature","properties":{"osmId":"way/1488889185","kind":"room","name":"Lecture Hall Complex Office Staff","ref":null,"level":"1","indoor":"room"},"geometry":{"type":"Polygon","coordinates":[[[80.233441,26.511124],[80.233448,26.511124],[80.233468,26.511143],[80.233478,26.51115],[80.233528,26.511109],[80.233498,26.511079],[80.233441,26.511124]]]}},{"type":"Feature","properties":{"osmId":"way/1488889188","kind":"stairs","name":null,"level":"0;1","highway":"steps"},"geometry":{"type":"LineString","coordinates":[[80.23327,26.511035],[80.233202,26.511097]]}},{"type":"Feature","properties":{"osmId":"way/1488889198","kind":"room","name":null,"ref":null,"level":"0","indoor":"corridor"},"geometry":{"type":"Polygon","coordinates":[[[80.233541,26.511287],[80.233434,26.511194],[80.233406,26.511194],[80.233392,26.511205],[80.233375,26.511186],[80.233387,26.511177],[80.233389,26.511156],[80.233381,26.511148],[80.233373,26.511157],[80.233365,26.511151],[80.23336,26.511145],[80.233369,26.511135],[80.233344,26.511113],[80.233335,26.511123],[80.233325,26.511116],[80.233319,26.511109],[80.23333,26.511098],[80.233321,26.51109],[80.233286,26.51109],[80.233188,26.511177],[80.23319,26.511212],[80.233149,26.511218],[80.233074,26.511332],[80.233062,26.511356],[80.233061,26.511483],[80.233032,26.511492],[80.233032,26.511441],[80.232727,26.511437],[80.232727,26.511407],[80.232869,26.511403],[80.233031,26.51141],[80.233031,26.511351],[80.23312,26.511212],[80.233116,26.511157],[80.233162,26.511154],[80.233282,26.511046],[80.23327,26.511035],[80.233239,26.511007],[80.233255,26.510993],[80.233293,26.511026],[80.233325,26.511031],[80.23347,26.510911],[80.233486,26.510926],[80.233341,26.51105],[80.233342,26.511071],[80.23335,26.511079],[80.233362,26.511067],[80.233371,26.511075],[80.233381,26.511085],[80.233367,26.511095],[80.233389,26.511116],[80.233403,26.511105],[80.233408,26.51111],[80.233416,26.511117],[80.233402,26.511128],[80.233412,26.511137],[80.233431,26.51114],[80.233448,26.511124],[80.233468,26.511143],[80.23345,26.511158],[80.233449,26.511175],[80.233559,26.511271],[80.233541,26.511287]]]}},{"type":"Feature","properties":{"osmId":"way/1488889200","kind":"corridor","name":null,"level":"1","highway":"footway"},"geometry":{"type":"LineString","coordinates":[[80.23326,26.511005],[80.233279,26.511028],[80.233303,26.51106],[80.233347,26.51109],[80.233352,26.511094],[80.233446,26.511183],[80.233465,26.511201],[80.233519,26.511252]]}},{"type":"Feature","properties":{"osmId":"way/1488889201","kind":"room","name":"Lecture Hall Complex Office Staff","ref":null,"level":"1","indoor":"room"},"geometry":{"type":"Polygon","coordinates":[[[80.233321,26.511224],[80.233348,26.511252],[80.233399,26.51121],[80.233392,26.511205],[80.233375,26.511186],[80.233372,26.511181],[80.233321,26.511224]]]}},{"type":"Feature","properties":{"osmId":"way/1488889204","kind":"corridor","name":null,"level":"1","highway":"corridor"},"geometry":{"type":"LineString","coordinates":[[80.23327,26.511035],[80.233279,26.511028]]}},{"type":"Feature","properties":{"osmId":"way/1489027369","kind":"corridor","name":null,"level":"1","highway":"footway"},"geometry":{"type":"LineString","coordinates":[[80.233557,26.510778],[80.233555,26.510867],[80.23347,26.51092],[80.233303,26.51106],[80.233269,26.511077],[80.233139,26.5112],[80.233074,26.511332],[80.233039,26.511356],[80.233039,26.511426],[80.23288,26.511421],[80.232716,26.511423],[80.232674,26.511436],[80.232612,26.511448],[80.232546,26.511455]]}},{"type":"Feature","properties":{"osmId":"way/1489027370","kind":"room","name":null,"ref":null,"level":"1","indoor":"corridor"},"geometry":{"type":"Polygon","coordinates":[[[80.233541,26.511287],[80.233434,26.511194],[80.233406,26.511194],[80.233392,26.511205],[80.233375,26.511186],[80.233387,26.511177],[80.233389,26.511156],[80.233381,26.511148],[80.233373,26.511157],[80.233367,26.511151],[80.23336,26.511145],[80.233369,26.511135],[80.233344,26.511113],[80.233335,26.511123],[80.233328,26.511116],[80.233286,26.511128],[80.233319,26.511109],[80.23333,26.511098],[80.233321,26.51109],[80.233286,26.51109],[80.233188,26.511177],[80.23319,26.511212],[80.233149,26.511218],[80.233074,26.511332],[80.233062,26.511356],[80.233061,26.511483],[80.233032,26.511492],[80.233032,26.511441],[80.232727,26.511437],[80.232727,26.511407],[80.232869,26.511403],[80.233031,26.51141],[80.233031,26.511351],[80.23312,26.511212],[80.233116,26.511157],[80.233162,26.511154],[80.233282,26.511046],[80.23327,26.511035],[80.233239,26.511007],[80.233255,26.510993],[80.233293,26.511026],[80.233325,26.511031],[80.23347,26.510911],[80.233486,26.510926],[80.233341,26.51105],[80.233342,26.511071],[80.23335,26.511079],[80.233362,26.511067],[80.233381,26.511085],[80.233367,26.511095],[80.23339,26.511116],[80.233403,26.511105],[80.233408,26.51111],[80.233416,26.511117],[80.233402,26.511128],[80.233412,26.511137],[80.233431,26.51114],[80.233448,26.511124],[80.233468,26.511143],[80.23345,26.511158],[80.233449,26.511175],[80.233559,26.511271],[80.233551,26.511278],[80.233541,26.511287]]]}},{"type":"Feature","properties":{"osmId":"way/1489040304","kind":"room","name":"107","ref":null,"level":"0","indoor":"room"},"geometry":{"type":"Polygon","coordinates":[[[80.232215,26.510995],[80.232207,26.510977],[80.232202,26.51096],[80.232192,26.51096],[80.232167,26.510963],[80.232108,26.510968],[80.232116,26.511002],[80.232129,26.51103],[80.232215,26.510995]]]}},{"type":"Feature","properties":{"osmId":"way/1489040305","kind":"stairs","name":null,"level":"0","highway":"steps"},"geometry":{"type":"LineString","coordinates":[[80.232498,26.510923],[80.232493,26.5109],[80.232554,26.510887],[80.23256,26.510925]]}},{"type":"Feature","properties":{"osmId":"way/1489040307","kind":"room","name":"210","ref":null,"level":"1","indoor":"room"},"geometry":{"type":"Polygon","coordinates":[[[80.232282,26.51114],[80.232319,26.511146],[80.232355,26.511147],[80.232354,26.511079],[80.232354,26.511068],[80.232333,26.511068],[80.232308,26.511064],[80.232282,26.51114]]]}},{"type":"Feature","properties":{"osmId":"way/1489040308","kind":"room","name":"101","ref":null,"level":"0","indoor":"room"},"geometry":{"type":"Polygon","coordinates":[[[80.232432,26.510836],[80.232446,26.510847],[80.232461,26.510862],[80.232472,26.510855],[80.232491,26.510843],[80.232536,26.510816],[80.232518,26.510796],[80.232491,26.510774],[80.232432,26.510836]]]}},{"type":"Feature","properties":{"osmId":"way/1489040309","kind":"room","name":"202","ref":null,"level":"1","indoor":"room"},"geometry":{"type":"Polygon","coordinates":[[[80.232491,26.510774],[80.232467,26.51076],[80.232427,26.510741],[80.232407,26.510783],[80.232397,26.510804],[80.232392,26.510815],[80.232416,26.510827],[80.232432,26.510836],[80.232491,26.510774]]]}},{"type":"Feature","properties":{"osmId":"way/1489040310","kind":"room","name":"105","ref":null,"level":"0","indoor":"room"},"geometry":{"type":"Polygon","coordinates":[[[80.232215,26.510882],[80.232225,26.510868],[80.232237,26.510853],[80.232226,26.510845],[80.232206,26.510826],[80.23219,26.510813],[80.232169,26.510794],[80.232144,26.510823],[80.232127,26.51085],[80.232215,26.510882]]]}},{"type":"Feature","properties":{"osmId":"way/1489040311","kind":"room","name":"208","ref":null,"level":"1","indoor":"room"},"geometry":{"type":"Polygon","coordinates":[[[80.232129,26.51103],[80.232146,26.511057],[80.232167,26.51108],[80.232206,26.511049],[80.23223,26.51103],[80.232237,26.511024],[80.232224,26.511009],[80.232215,26.510995],[80.232129,26.51103]]]}},{"type":"Feature","properties":{"osmId":"way/1489040312","kind":"room","name":"103","ref":null,"level":"0","indoor":"room"},"geometry":{"type":"Polygon","coordinates":[[[80.232311,26.510814],[80.232333,26.51081],[80.232356,26.51081],[80.232355,26.510794],[80.232355,26.510773],[80.232354,26.510757],[80.232353,26.510728],[80.232285,26.510733],[80.232311,26.510814]]]}},{"type":"Feature","properties":{"osmId":"way/1489040313","kind":"room","name":"111","ref":null,"level":"0","indoor":"room"},"geometry":{"type":"Polygon","coordinates":[[[80.232433,26.511041],[80.232415,26.511052],[80.232397,26.51106],[80.2324,26.511072],[80.232403,26.511083],[80.232421,26.511135],[80.232451,26.511124],[80.232479,26.511108],[80.232433,26.511041]]]}},{"type":"Feature","properties":{"osmId":"way/1489040314","kind":"room","name":"206","ref":null,"level":"1","indoor":"room"},"geometry":{"type":"Polygon","coordinates":[[[80.232127,26.51085],[80.232115,26.510877],[80.232108,26.510906],[80.232167,26.510913],[80.232191,26.510916],[80.232203,26.510918],[80.232207,26.510901],[80.232215,26.510882],[80.232127,26.51085]]]}},{"type":"Feature","properties":{"osmId":"way/1489040315","kind":"room","name":"110","ref":null,"level":"0","indoor":"room"},"geometry":{"type":"Polygon","coordinates":[[[80.232282,26.51114],[80.232319,26.511146],[80.232355,26.511147],[80.232354,26.51109],[80.232354,26.511079],[80.232354,26.511068],[80.232333,26.511068],[80.232308,26.511064],[80.232282,26.51114]]]}},{"type":"Feature","properties":{"osmId":"way/1489040316","kind":"room","name":"108","ref":null,"level":"0","indoor":"room"},"geometry":{"type":"Polygon","coordinates":[[[80.232129,26.51103],[80.232146,26.511057],[80.232167,26.51108],[80.232206,26.511049],[80.232215,26.511042],[80.23223,26.51103],[80.232237,26.511024],[80.232224,26.511009],[80.232215,26.510995],[80.232129,26.51103]]]}},{"type":"Feature","properties":{"osmId":"way/1489040319","kind":"room","name":"106","ref":null,"level":"0","indoor":"room"},"geometry":{"type":"Polygon","coordinates":[[[80.232127,26.51085],[80.232115,26.510877],[80.232108,26.510906],[80.232167,26.510913],[80.232191,26.510916],[80.232203,26.510918],[80.232207,26.510901],[80.232215,26.510882],[80.232127,26.51085]]]}},{"type":"Feature","properties":{"osmId":"way/1489040321","kind":"room","name":"212","ref":null,"level":"1","indoor":"room"},"geometry":{"type":"Polygon","coordinates":[[[80.232479,26.511108],[80.232508,26.511087],[80.232537,26.511057],[80.232478,26.511017],[80.232466,26.51101],[80.23245,26.511027],[80.232433,26.511041],[80.232479,26.511108]]]}},{"type":"Feature","properties":{"osmId":"way/1489040323","kind":"room","name":null,"ref":null,"level":"0;1","indoor":"room"},"geometry":{"type":"Polygon","coordinates":[[[80.232566,26.511002],[80.232509,26.510985],[80.232483,26.510977],[80.232487,26.510959],[80.232489,26.510935],[80.232487,26.510916],[80.23248,26.510893],[80.232516,26.510885],[80.23257,26.510872],[80.232574,26.510902],[80.232578,26.510935],[80.23259,26.510955],[80.232576,26.510951],[80.232573,26.510972],[80.232566,26.511002]]]}},{"type":"Feature","properties":{"osmId":"way/1489040324","kind":"room","name":"109","ref":null,"level":"0","indoor":"room"},"geometry":{"type":"Polygon","coordinates":[[[80.232308,26.511064],[80.232289,26.511058],[80.23227,26.511049],[80.232265,26.511056],[80.232256,26.511068],[80.232248,26.511078],[80.232219,26.511117],[80.232246,26.511129],[80.232282,26.51114],[80.232308,26.511064]]]}},{"type":"Feature","properties":{"osmId":"way/1489040325","kind":"room","name":"207","ref":null,"level":"1","indoor":"room"},"geometry":{"type":"Polygon","coordinates":[[[80.232215,26.510995],[80.232207,26.510977],[80.232202,26.51096],[80.232192,26.51096],[80.232167,26.510963],[80.232108,26.510968],[80.232116,26.511002],[80.232129,26.51103],[80.232215,26.510995]]]}},{"type":"Feature","properties":{"osmId":"way/1489040326","kind":"room","name":"112","ref":null,"level":"0","indoor":"room"},"geometry":{"type":"Polygon","coordinates":[[[80.232479,26.511108],[80.232508,26.511087],[80.232537,26.511057],[80.232487,26.511023],[80.232478,26.511017],[80.232466,26.51101],[80.23245,26.511027],[80.232433,26.511041],[80.232479,26.511108]]]}},{"type":"Feature","properties":{"osmId":"way/1489040327","kind":"room","name":"211","ref":null,"level":"1","indoor":"room"},"geometry":{"type":"Polygon","coordinates":[[[80.232433,26.511041],[80.232415,26.511052],[80.232398,26.51106],[80.2324,26.511071],[80.232421,26.511135],[80.232451,26.511124],[80.232479,26.511108],[80.232433,26.511041]]]}},{"type":"Feature","properties":{"osmId":"way/1489040328","kind":"room","name":"201","ref":null,"level":"1","indoor":"room"},"geometry":{"type":"Polygon","coordinates":[[[80.232432,26.510836],[80.232446,26.510847],[80.232461,26.510862],[80.232472,26.510855],[80.232536,26.510816],[80.232518,26.510796],[80.232491,26.510774],[80.232432,26.510836]]]}},{"type":"Feature","properties":{"osmId":"way/1489040330","kind":"room","name":"203","ref":null,"level":"1","indoor":"room"},"geometry":{"type":"Polygon","coordinates":[[[80.232311,26.510814],[80.232333,26.51081],[80.232356,26.51081],[80.232355,26.510794],[80.232355,26.510794],[80.232354,26.510773],[80.232353,26.510728],[80.232285,26.510733],[80.232311,26.510814]]]}},{"type":"Feature","properties":{"osmId":"way/1489040331","kind":"room","name":"209","ref":null,"level":"1","indoor":"room"},"geometry":{"type":"Polygon","coordinates":[[[80.232308,26.511064],[80.232289,26.511058],[80.23227,26.511049],[80.232265,26.511056],[80.232248,26.511078],[80.232219,26.511117],[80.232246,26.511129],[80.232282,26.51114],[80.232308,26.511064]]]}},{"type":"Feature","properties":{"osmId":"way/1489040332","kind":"room","name":"102","ref":null,"level":"0","indoor":"room"},"geometry":{"type":"Polygon","coordinates":[[[80.232491,26.510774],[80.232467,26.51076],[80.232427,26.510741],[80.232407,26.510784],[80.232397,26.510804],[80.232392,26.510815],[80.232416,26.510827],[80.232432,26.510836],[80.232491,26.510774]]]}},{"type":"Feature","properties":{"osmId":"way/1489040334","kind":"room","name":"205","ref":null,"level":"1","indoor":"room"},"geometry":{"type":"Polygon","coordinates":[[[80.232215,26.510882],[80.232225,26.510868],[80.232237,26.510853],[80.232226,26.510845],[80.232226,26.510844],[80.232206,26.510826],[80.232169,26.510794],[80.232144,26.510823],[80.232127,26.51085],[80.232215,26.510882]]]}},{"type":"Feature","properties":{"osmId":"way/1489040336","kind":"room","name":"104","ref":null,"level":"0","indoor":"room"},"geometry":{"type":"Polygon","coordinates":[[[80.232285,26.510733],[80.232259,26.510741],[80.232218,26.510758],[80.232246,26.510796],[80.232262,26.510819],[80.23227,26.510829],[80.232289,26.510819],[80.232311,26.510814],[80.232285,26.510733]]]}},{"type":"Feature","properties":{"osmId":"way/1489040337","kind":"room","name":"204","ref":null,"level":"1","indoor":"room"},"geometry":{"type":"Polygon","coordinates":[[[80.232285,26.510733],[80.232259,26.510741],[80.232218,26.510758],[80.232246,26.510796],[80.232262,26.510819],[80.23227,26.510829],[80.232289,26.510819],[80.232311,26.510814],[80.232285,26.510733]]]}},{"type":"Feature","properties":{"osmId":"way/1489089285","kind":"corridor","name":null,"level":"0","highway":"footway"},"geometry":{"type":"LineString","coordinates":[[80.233365,26.511958],[80.233613,26.511969]]}},{"type":"Feature","properties":{"osmId":"way/1489089287","kind":"stairs","name":null,"level":"0;1","highway":"steps"},"geometry":{"type":"LineString","coordinates":[[80.233519,26.511252],[80.233558,26.511286]]}},{"type":"Feature","properties":{"osmId":"way/1490081568","kind":"corridor","name":null,"level":"1","highway":"corridor"},"geometry":{"type":"LineString","coordinates":[[80.232472,26.510938],[80.232489,26.510935],[80.232498,26.510935],[80.232499,26.510935]]}},{"type":"Feature","properties":{"osmId":"way/1490081569","kind":"corridor","name":null,"level":"1","highway":"corridor"},"geometry":{"type":"LineString","coordinates":[[80.232265,26.511056],[80.232245,26.511043],[80.23223,26.51103]]}},{"type":"Feature","properties":{"osmId":"way/1490081570","kind":"corridor","name":null,"level":"1","highway":"corridor"},"geometry":{"type":"LineString","coordinates":[[80.232264,26.511028],[80.232245,26.511043]]}},{"type":"Feature","properties":{"osmId":"way/1490081571","kind":"corridor","name":null,"level":"1","highway":"corridor"},"geometry":{"type":"LineString","coordinates":[[80.232192,26.51096],[80.23219,26.510938],[80.232191,26.510916]]}},{"type":"Feature","properties":{"osmId":"way/1490081572","kind":"corridor","name":null,"level":"1","highway":"corridor"},"geometry":{"type":"LineString","coordinates":[[80.232214,26.510939],[80.23219,26.510938]]}},{"type":"Feature","properties":{"osmId":"way/1490081573","kind":"corridor","name":null,"level":"1","highway":"corridor"},"geometry":{"type":"LineString","coordinates":[[80.232261,26.510847],[80.232243,26.510831]]}},{"type":"Feature","properties":{"osmId":"way/1490081574","kind":"corridor","name":null,"level":"1","highway":"corridor"},"geometry":{"type":"LineString","coordinates":[[80.232226,26.510844],[80.232243,26.510831],[80.232262,26.510819]]}},{"type":"Feature","properties":{"osmId":"way/1490081575","kind":"corridor","name":null,"level":"1","highway":"corridor"},"geometry":{"type":"LineString","coordinates":[[80.232238,26.511003],[80.232221,26.510973],[80.232214,26.510939],[80.232219,26.510905],[80.232235,26.510873],[80.232261,26.510847],[80.232295,26.510829],[80.232333,26.510821],[80.232371,26.510824],[80.232407,26.510837],[80.232437,26.510858],[80.232458,26.510886],[80.232468,26.510911],[80.232472,26.510938],[80.23247,26.510951],[80.232468,26.510965],[80.232458,26.51099],[80.232436,26.511017],[80.232406,26.511038],[80.232371,26.51105],[80.232333,26.511052],[80.232297,26.511044],[80.232264,26.511028],[80.232238,26.511003]]}},{"type":"Feature","properties":{"osmId":"way/1490081576","kind":"corridor","name":null,"level":"1","highway":"corridor"},"geometry":{"type":"LineString","coordinates":[[80.232371,26.510824],[80.232377,26.510798]]}},{"type":"Feature","properties":{"osmId":"way/1490081577","kind":"corridor","name":null,"level":"1","highway":"corridor"},"geometry":{"type":"LineString","coordinates":[[80.232355,26.510794],[80.232377,26.510798],[80.232397,26.510804]]}},{"type":"Feature","properties":{"osmId":"way/1490081579","kind":"corridor","name":null,"level":"0","highway":"corridor"},"geometry":{"type":"LineString","coordinates":[[80.232499,26.510935],[80.232498,26.510923]]}},{"type":"Feature","properties":{"osmId":"way/1490081580","kind":"corridor","name":null,"level":"0","highway":"corridor"},"geometry":{"type":"LineString","coordinates":[[80.232261,26.510847],[80.232243,26.510831]]}},{"type":"Feature","properties":{"osmId":"way/1490081581","kind":"corridor","name":null,"level":"0","highway":"corridor"},"geometry":{"type":"LineString","coordinates":[[80.232226,26.510845],[80.232243,26.510831],[80.232262,26.510819]]}},{"type":"Feature","properties":{"osmId":"way/1490081583","kind":"corridor","name":null,"level":"0","highway":"corridor"},"geometry":{"type":"LineString","coordinates":[[80.232355,26.510794],[80.232377,26.510798],[80.232397,26.510804]]}},{"type":"Feature","properties":{"osmId":"way/1490081584","kind":"corridor","name":null,"level":"0","highway":"corridor"},"geometry":{"type":"LineString","coordinates":[[80.232372,26.510824],[80.232377,26.510798]]}},{"type":"Feature","properties":{"osmId":"way/1490081585","kind":"corridor","name":null,"level":"0","highway":"corridor"},"geometry":{"type":"LineString","coordinates":[[80.232472,26.510855],[80.232477,26.510873],[80.232459,26.510886]]}},{"type":"Feature","properties":{"osmId":"way/1490081586","kind":"corridor","name":null,"level":"0","highway":"corridor"},"geometry":{"type":"LineString","coordinates":[[80.232458,26.51099],[80.232475,26.510995],[80.232478,26.511017]]}},{"type":"Feature","properties":{"osmId":"way/1490081587","kind":"corridor","name":null,"level":"0","highway":"corridor"},"geometry":{"type":"LineString","coordinates":[[80.2324,26.511072],[80.232376,26.511077],[80.232354,26.511079]]}},{"type":"Feature","properties":{"osmId":"way/1490081588","kind":"corridor","name":null,"level":"0","highway":"corridor"},"geometry":{"type":"LineString","coordinates":[[80.232472,26.510938],[80.232489,26.510935],[80.232499,26.510935],[80.232578,26.510935],[80.232618,26.510934],[80.232647,26.511167],[80.23267,26.511284]]}},{"type":"Feature","properties":{"osmId":"way/1490081589","kind":"corridor","name":null,"level":"0","highway":"corridor"},"geometry":{"type":"LineString","coordinates":[[80.232371,26.51105],[80.232376,26.511077],[80.232387,26.511143]]}},{"type":"Feature","properties":{"osmId":"way/1490081590","kind":"corridor","name":null,"level":"0","highway":"corridor"},"geometry":{"type":"LineString","coordinates":[[80.232263,26.511028],[80.232245,26.511043]]}},{"type":"Feature","properties":{"osmId":"way/1490081591","kind":"corridor","name":null,"level":"0","highway":"corridor"},"geometry":{"type":"LineString","coordinates":[[80.232265,26.511056],[80.232245,26.511043],[80.23223,26.51103]]}},{"type":"Feature","properties":{"osmId":"way/1490081592","kind":"corridor","name":null,"level":"0","highway":"corridor"},"geometry":{"type":"LineString","coordinates":[[80.232192,26.51096],[80.23219,26.510938],[80.232191,26.510916]]}},{"type":"Feature","properties":{"osmId":"way/1490081593","kind":"corridor","name":null,"level":"0","highway":"corridor"},"geometry":{"type":"LineString","coordinates":[[80.232214,26.510938],[80.23219,26.510938]]}},{"type":"Feature","properties":{"osmId":"way/1490081594","kind":"corridor","name":null,"level":"0","highway":"corridor"},"geometry":{"type":"LineString","coordinates":[[80.232237,26.511004],[80.23222,26.510974],[80.232214,26.510938],[80.232218,26.510906],[80.232235,26.510874],[80.232261,26.510847],[80.232295,26.510829],[80.232333,26.510821],[80.232372,26.510824],[80.232407,26.510836],[80.232437,26.510858],[80.232459,26.510886],[80.232469,26.510911],[80.232472,26.510938],[80.232469,26.510965],[80.232458,26.51099],[80.232436,26.511017],[80.232406,26.511038],[80.232371,26.51105],[80.232333,26.511052],[80.232296,26.511045],[80.232263,26.511028],[80.232237,26.511004]]}},{"type":"Feature","properties":{"osmId":"way/1555323734","kind":"corridor","name":null,"level":"1","highway":"corridor"},"geometry":{"type":"LineString","coordinates":[[80.23247,26.510951],[80.232576,26.510951]]}},{"type":"Feature","properties":{"osmId":"way/1555323736","kind":"stairs","name":null,"level":"0","highway":"steps"},"geometry":{"type":"LineString","coordinates":[[80.232394,26.511167],[80.232387,26.511143]]}},{"type":"Feature","properties":{"osmId":"way/1555327398","kind":"corridor","name":null,"level":"0","highway":"footway"},"geometry":{"type":"LineString","coordinates":[[80.232635,26.511322],[80.23267,26.511284],[80.232681,26.511275],[80.232702,26.511254],[80.232721,26.511235],[80.232765,26.511227],[80.232924,26.511207],[80.233079,26.511227],[80.233102,26.511253],[80.233154,26.511309],[80.23316,26.511377],[80.233165,26.511458],[80.233167,26.511474],[80.233095,26.51163],[80.233041,26.51163],[80.232955,26.511637],[80.232908,26.511641],[80.232838,26.511644],[80.232728,26.511648],[80.232653,26.511592],[80.232601,26.511475],[80.232604,26.511437],[80.232635,26.511322]]}},{"type":"Feature","properties":{"osmId":"way/1555327402","kind":"corridor","name":null,"level":"1","highway":"footway"},"geometry":{"type":"LineString","coordinates":[[80.232722,26.511492],[80.232674,26.511436],[80.232705,26.511374],[80.232798,26.511319],[80.232897,26.511309],[80.232997,26.511309],[80.233074,26.511332],[80.233092,26.511407],[80.233083,26.511448],[80.233068,26.511515],[80.233077,26.51161]]}},{"type":"Feature","properties":{"osmId":"way/1555327405","kind":"corridor","name":null,"level":"1","highway":"footway"},"geometry":{"type":"LineString","coordinates":[[80.23318,26.511429],[80.233183,26.511446],[80.233195,26.511477]]}},{"type":"Feature","properties":{"osmId":"way/1555327406","kind":"corridor","name":null,"level":"1","highway":"footway"},"geometry":{"type":"LineString","coordinates":[[80.23263,26.511477],[80.232612,26.511448],[80.232613,26.511425]]}},{"type":"Feature","properties":{"osmId":"way/1555327408","kind":"corridor","name":null,"level":"1","highway":"footway"},"geometry":{"type":"LineString","coordinates":[[80.233039,26.511426],[80.233083,26.511448],[80.233119,26.511449],[80.233183,26.511446],[80.233211,26.51145],[80.233241,26.511446]]}},{"type":"Feature","properties":{"osmId":"way/1555327410","kind":"corridor","name":null,"level":"1","highway":"footway"},"geometry":{"type":"LineString","coordinates":[[80.232865,26.511548],[80.23289,26.511501],[80.23288,26.511421],[80.232897,26.511309],[80.232913,26.511167],[80.232905,26.511122]]}},{"type":"Feature","properties":{"osmId":"way/1555329037","kind":"corridor","name":null,"level":"0","highway":"footway"},"geometry":{"type":"LineString","coordinates":[[80.233165,26.511458],[80.233226,26.511455],[80.233265,26.511452],[80.233366,26.511449]]}},{"type":"Feature","properties":{"osmId":"way/1555329038","kind":"corridor","name":null,"level":"0","highway":"footway"},"geometry":{"type":"LineString","coordinates":[[80.232922,26.511365],[80.232604,26.511437],[80.232583,26.511439],[80.232518,26.511445]]}},{"type":"Feature","properties":{"osmId":"way/1555329052","kind":"corridor","name":null,"level":"0","highway":"footway"},"geometry":{"type":"LineString","coordinates":[[80.232922,26.511365],[80.232924,26.511207],[80.232921,26.511176],[80.23291,26.511059]]}},{"type":"Feature","properties":{"osmId":"way/1555329814","kind":"corridor","name":null,"level":"0","highway":"footway"},"geometry":{"type":"LineString","coordinates":[[80.232323,26.511209],[80.232398,26.511225],[80.232437,26.511233],[80.232681,26.511275]]}},{"type":"Feature","properties":{"osmId":"way/1555338792","kind":"corridor","name":null,"level":"0","highway":"footway"},"geometry":{"type":"LineString","coordinates":[[80.232872,26.510934],[80.232602,26.510929]]}},{"type":"Feature","properties":{"osmId":"way/1555338793","kind":"corridor","name":null,"level":"0","highway":"footway"},"geometry":{"type":"LineString","coordinates":[[80.23291,26.511059],[80.232917,26.510983]]}},{"type":"Feature","properties":{"osmId":"way/1555338794","kind":"corridor","name":null,"level":"0","highway":"footway"},"geometry":{"type":"LineString","coordinates":[[80.232765,26.511227],[80.23272,26.511119]]}},{"type":"Feature","properties":{"osmId":"way/1555338795","kind":"corridor","name":null,"level":"1","highway":"corridor"},"geometry":{"type":"LineString","coordinates":[[80.232631,26.511183],[80.232602,26.510929]]}},{"type":"Feature","properties":{"osmId":"way/1555338796","kind":"stairs","name":null,"level":"0;1","highway":"steps"},"geometry":{"type":"LineString","coordinates":[[80.232602,26.510929],[80.232578,26.510935],[80.23256,26.510925]]}},{"type":"Feature","properties":{"osmId":"way/1555338797","kind":"connector","name":null,"level":"0;1","highway":"footway"},"geometry":{"type":"LineString","coordinates":[[80.23272,26.511119],[80.232696,26.511011],[80.232673,26.511018],[80.232701,26.511139],[80.232646,26.511183],[80.232631,26.511183],[80.232609,26.511183],[80.23259,26.510955]]}},{"type":"Feature","properties":{"osmId":"way/1555343350","kind":"connector","name":null,"level":"0;1","highway":"footway"},"geometry":{"type":"LineString","coordinates":[[80.233519,26.512321],[80.233497,26.512327],[80.233472,26.512326],[80.23327,26.512326],[80.233268,26.512343],[80.233452,26.512347],[80.233449,26.512375]]}},{"type":"Feature","properties":{"osmId":"way/1555343354","kind":"stairs","name":null,"level":"0;1","highway":"steps"},"geometry":{"type":"LineString","coordinates":[[80.232648,26.512377],[80.232647,26.512394],[80.232646,26.512414],[80.232646,26.512421]]}},{"type":"Feature","properties":{"osmId":"way/1555343355","kind":"stairs","name":null,"level":"0;1","highway":"steps"},"geometry":{"type":"LineString","coordinates":[[80.232957,26.511686],[80.232955,26.511637]]}},{"type":"Feature","properties":{"osmId":"way/1555343356","kind":"stairs","name":null,"level":"0;1","highway":"steps"},"geometry":{"type":"LineString","coordinates":[[80.232841,26.511689],[80.232838,26.511644]]}},{"type":"Feature","properties":{"osmId":"way/1555343357","kind":"corridor","name":null,"level":"1","highway":"footway"},"geometry":{"type":"LineString","coordinates":[[80.233077,26.51161],[80.233039,26.511614]]}},{"type":"Feature","properties":{"osmId":"way/1555343358","kind":"stairs","name":null,"level":"0;1","highway":"steps"},"geometry":{"type":"LineString","coordinates":[[80.233008,26.51162],[80.233039,26.511614],[80.233041,26.51163]]}},{"type":"Feature","properties":{"osmId":"way/1555343359","kind":"corridor","name":null,"level":"1","highway":"footway"},"geometry":{"type":"LineString","coordinates":[[80.232685,26.511207],[80.232704,26.511195]]}},{"type":"Feature","properties":{"osmId":"way/1555343360","kind":"stairs","name":null,"level":"0;1","highway":"steps"},"geometry":{"type":"LineString","coordinates":[[80.23273,26.511185],[80.232704,26.511195],[80.232721,26.511235]]}},{"type":"Feature","properties":{"osmId":"way/1555343361","kind":"corridor","name":null,"level":"1","highway":"footway"},"geometry":{"type":"LineString","coordinates":[[80.232705,26.511374],[80.232689,26.511241],[80.232685,26.511207],[80.232631,26.511183]]}},{"type":"Feature","properties":{"osmId":"way/1555343364","kind":"corridor","name":null,"level":"0","highway":"footway"},"geometry":{"type":"LineString","coordinates":[[80.23309,26.511783],[80.233095,26.51163]]}},{"type":"Feature","properties":{"osmId":"way/1555343365","kind":"corridor","name":null,"level":"0","highway":"footway"},"geometry":{"type":"LineString","coordinates":[[80.232893,26.511786],[80.232908,26.511641]]}},{"type":"Feature","properties":{"osmId":"way/1555343366","kind":"corridor","name":null,"level":"0","highway":"footway"},"geometry":{"type":"LineString","coordinates":[[80.232705,26.511789],[80.232728,26.511648]]}},{"type":"Feature","properties":{"osmId":"way/1555343367","kind":"corridor","name":null,"level":"0","highway":"footway"},"geometry":{"type":"LineString","coordinates":[[80.232908,26.511641],[80.232922,26.511365]]}},{"type":"Feature","properties":{"osmId":"way/1555343368","kind":"corridor","name":null,"level":"0","highway":"footway"},"geometry":{"type":"LineString","coordinates":[[80.23316,26.511377],[80.232922,26.511365]]}},{"type":"Feature","properties":{"osmId":"way/1555343369","kind":"corridor","name":null,"level":"0","highway":"footway"},"geometry":{"type":"LineString","coordinates":[[80.232398,26.511225],[80.232396,26.511203],[80.232394,26.511167]]}},{"type":"Feature","properties":{"osmId":"way/1555345740","kind":"corridor","name":null,"level":"1","highway":"footway"},"geometry":{"type":"LineString","coordinates":[[80.233151,26.510847],[80.233172,26.510881],[80.233231,26.510961],[80.233241,26.510977],[80.23326,26.511005]]}},{"type":"Feature","properties":{"osmId":"way/1555345741","kind":"stairs","name":null,"level":"0;1","highway":"steps"},"geometry":{"type":"LineString","coordinates":[[80.233279,26.510985],[80.233266,26.510997],[80.23326,26.511005]]}},{"type":"Feature","properties":{"osmId":"way/1555345743","kind":"corridor","name":null,"level":"1","highway":"footway"},"geometry":{"type":"LineString","coordinates":[[80.233442,26.511233],[80.233465,26.511201],[80.233494,26.5112]]}},{"type":"Feature","properties":{"osmId":"way/1555346031","kind":"stairs","name":null,"level":"0;1","highway":"steps"},"geometry":{"type":"LineString","coordinates":[[80.233582,26.510561],[80.233581,26.51062]]}},{"type":"Feature","properties":{"osmId":"way/1555346032","kind":"corridor","name":null,"level":"1","highway":"footway"},"geometry":{"type":"LineString","coordinates":[[80.233557,26.510778],[80.233583,26.510666],[80.233581,26.51062]]}},{"type":"Feature","properties":{"osmId":"way/1555346033","kind":"corridor","name":null,"level":"1","highway":"footway"},"geometry":{"type":"LineString","coordinates":[[80.233544,26.510669],[80.233583,26.510666],[80.233612,26.510665]]}},{"type":"Feature","properties":{"osmId":"way/1555346034","kind":"corridor","name":null,"level":"1","highway":"footway"},"geometry":{"type":"LineString","coordinates":[[80.233324,26.510731],[80.23338,26.510753],[80.233394,26.510756],[80.233446,26.510769],[80.233479,26.510772],[80.233522,26.510776],[80.233557,26.510778],[80.233621,26.510781],[80.233635,26.51078],[80.233649,26.51078],[80.233703,26.510776],[80.233755,26.510762],[80.233796,26.510751],[80.233832,26.510739]]}},{"type":"Feature","properties":{"osmId":"way/1555349350","kind":"stairs","name":null,"level":"0;1","highway":"steps"},"geometry":{"type":"LineString","coordinates":[[80.233796,26.510751],[80.233794,26.510689]]}},{"type":"Feature","properties":{"osmId":"way/1555349351","kind":"stairs","name":null,"level":"0;1","highway":"steps"},"geometry":{"type":"LineString","coordinates":[[80.233635,26.51078],[80.233637,26.510713]]}},{"type":"Feature","properties":{"osmId":"way/1555349352","kind":"stairs","name":null,"level":"0;1","highway":"steps"},"geometry":{"type":"LineString","coordinates":[[80.233522,26.510776],[80.233528,26.510714]]}},{"type":"Feature","properties":{"osmId":"way/1555349353","kind":"stairs","name":null,"level":"0;1","highway":"steps"},"geometry":{"type":"LineString","coordinates":[[80.233367,26.510686],[80.233324,26.510731]]}},{"type":"Feature","properties":{"osmId":"way/1555349355","kind":"corridor","name":null,"level":"0","highway":"footway"},"geometry":{"type":"LineString","coordinates":[[80.232603,26.512382],[80.234176,26.51238],[80.234414,26.512383],[80.234726,26.512386],[80.234766,26.512036],[80.234778,26.511655],[80.234793,26.51104],[80.234473,26.511034]]}},{"type":"Feature","properties":{"osmId":"way/1555349356","kind":"corridor","name":"IITK Academic Area Corridors","level":"1","highway":"footway"},"geometry":{"type":"LineString","coordinates":[[80.232648,26.512377],[80.231345,26.512371]]}},{"type":"Feature","properties":{"osmId":"way/1555349357","kind":"corridor","name":null,"level":"0","highway":"footway"},"geometry":{"type":"LineString","coordinates":[[80.233367,26.510686],[80.23337,26.510683],[80.233424,26.510713],[80.233495,26.510714],[80.233528,26.510714],[80.233599,26.510713],[80.233637,26.510713],[80.233708,26.510706],[80.233794,26.510689]]}},{"type":"Feature","properties":{"osmId":"way/1555349504","kind":"corridor","name":null,"level":"2","highway":"footway"},"geometry":{"type":"LineString","coordinates":[[80.234198,26.510637],[80.234183,26.510638]]}},{"type":"Feature","properties":{"osmId":"way/1555349505","kind":"stairs","name":null,"level":"2","highway":"steps"},"geometry":{"type":"LineString","coordinates":[[80.234174,26.510643],[80.234183,26.510638]]}},{"type":"Feature","properties":{"osmId":"way/1555355643","kind":"corridor","name":null,"level":"0","highway":"footway"},"geometry":{"type":"LineString","coordinates":[[80.234256,26.511003],[80.234247,26.511045]]}},{"type":"Feature","properties":{"osmId":"way/1555355644","kind":"corridor","name":null,"level":"0","highway":"footway"},"geometry":{"type":"LineString","coordinates":[[80.234031,26.510881],[80.233999,26.510904]]}},{"type":"Feature","properties":{"osmId":"way/1555355645","kind":"stairs","name":null,"level":"0","highway":"steps"},"geometry":{"type":"LineString","coordinates":[[80.234241,26.51106],[80.234247,26.511045]]}},{"type":"Feature","properties":{"osmId":"way/1555355646","kind":"stairs","name":null,"level":"0","highway":"steps"},"geometry":{"type":"LineString","coordinates":[[80.233974,26.510921],[80.233999,26.510904]]}},{"type":"Feature","properties":{"osmId":"way/1555355647","kind":"connector","name":null,"level":"1;2","highway":"footway"},"geometry":{"type":"LineString","coordinates":[[80.233825,26.510724],[80.233902,26.510679],[80.233924,26.510701],[80.233906,26.510731]]}},{"type":"Feature","properties":{"osmId":"way/1555355648","kind":"corridor","name":null,"level":"0","highway":"footway"},"geometry":{"type":"LineString","coordinates":[[80.233794,26.510689],[80.23382,26.510752]]}},{"type":"Feature","properties":{"osmId":"way/1555355649","kind":"connector","name":null,"level":"0;1","highway":"footway"},"geometry":{"type":"LineString","coordinates":[[80.233794,26.510689],[80.233833,26.510694],[80.233887,26.510661],[80.233893,26.510673],[80.233822,26.510719],[80.233825,26.510724],[80.233832,26.510739]]}},{"type":"Feature","properties":{"osmId":"way/1555355650","kind":"corridor","name":null,"level":"0","highway":"footway"},"geometry":{"type":"LineString","coordinates":[[80.233583,26.510786],[80.233705,26.510787],[80.23382,26.510752],[80.233833,26.510748],[80.233826,26.51073]]}},{"type":"Feature","properties":{"osmId":"way/1555355652","kind":"stairs","name":null,"level":"0;1","highway":"steps"},"geometry":{"type":"LineString","coordinates":[[80.233999,26.512386],[80.234014,26.512269]]}},{"type":"Feature","properties":{"osmId":"way/1555355653","kind":"corridor","name":null,"level":"0","highway":"corridor"},"geometry":{"type":"LineString","coordinates":[[80.233906,26.510731],[80.233927,26.510701],[80.233917,26.510691],[80.233826,26.51073]]}},{"type":"Feature","properties":{"osmId":"way/1555355654","kind":"corridor","name":null,"level":"0","highway":"footway"},"geometry":{"type":"LineString","coordinates":[[80.234455,26.51102],[80.234467,26.510761],[80.234458,26.51076]]}},{"type":"Feature","properties":{"osmId":"way/1555355655","kind":"corridor","name":null,"level":"0","highway":"footway"},"geometry":{"type":"LineString","coordinates":[[80.234189,26.510645],[80.234074,26.510701],[80.233982,26.510658]]}},{"type":"Feature","properties":{"osmId":"way/1555355656","kind":"corridor","name":null,"level":"0","highway":"footway"},"geometry":{"type":"LineString","coordinates":[[80.233906,26.510731],[80.233982,26.510658],[80.234012,26.510639]]}},{"type":"Feature","properties":{"osmId":"way/1555355657","kind":"corridor","name":null,"level":"2","highway":"footway"},"geometry":{"type":"LineString","coordinates":[[80.234455,26.510783],[80.234469,26.5108]]}},{"type":"Feature","properties":{"osmId":"way/1555355658","kind":"corridor","name":null,"level":"2","highway":"footway"},"geometry":{"type":"LineString","coordinates":[[80.234464,26.510924],[80.234476,26.510816]]}},{"type":"Feature","properties":{"osmId":"way/1555355659","kind":"stairs","name":null,"level":"2","highway":"steps"},"geometry":{"type":"LineString","coordinates":[[80.234476,26.510816],[80.234469,26.5108]]}},{"type":"Feature","properties":{"osmId":"way/1555355660","kind":"corridor","name":null,"level":"0","highway":"footway"},"geometry":{"type":"LineString","coordinates":[[80.234387,26.511006],[80.234318,26.511019],[80.234256,26.511003]]}},{"type":"Feature","properties":{"osmId":"way/1555355661","kind":"corridor","name":null,"level":"0","highway":"footway"},"geometry":{"type":"LineString","coordinates":[[80.234217,26.510971],[80.234156,26.51096]]}},{"type":"Feature","properties":{"osmId":"way/1555355662","kind":"corridor","name":null,"level":"0","highway":"footway"},"geometry":{"type":"LineString","coordinates":[[80.234115,26.510914],[80.234031,26.510881],[80.234007,26.510834],[80.234156,26.51096]]}},{"type":"Feature","properties":{"osmId":"way/1555355663","kind":"corridor","name":null,"level":"0","highway":"footway"},"geometry":{"type":"LineString","coordinates":[[80.234025,26.510829],[80.234007,26.510834],[80.233906,26.510731]]}},{"type":"Feature","properties":{"osmId":"way/1555355664","kind":"corridor","name":null,"level":"2","highway":"footway"},"geometry":{"type":"LineString","coordinates":[[80.233975,26.510781],[80.233935,26.510709],[80.233906,26.510731]]}},{"type":"Feature","properties":{"osmId":"way/1555355666","kind":"corridor","name":null,"level":"2","highway":"footway"},"geometry":{"type":"LineString","coordinates":[[80.234294,26.511025],[80.234444,26.511025],[80.234464,26.510924],[80.234438,26.510929]]}},{"type":"Feature","properties":{"osmId":"way/1555355667","kind":"corridor","name":null,"level":"2","highway":"footway"},"geometry":{"type":"LineString","coordinates":[[80.234063,26.510901],[80.233975,26.510781],[80.234074,26.510711],[80.234174,26.510643]]}},{"type":"Feature","properties":{"osmId":"way/1555355668","kind":"corridor","name":null,"level":"2","highway":"footway"},"geometry":{"type":"LineString","coordinates":[[80.234073,26.510883],[80.234063,26.510901],[80.234161,26.510971],[80.234294,26.511025],[80.234308,26.511007]]}},{"type":"Feature","properties":{"osmId":"way/1555356940","kind":"stairs","name":null,"level":"0;1","highway":"steps"},"geometry":{"type":"LineString","coordinates":[[80.233213,26.510852],[80.233194,26.510863],[80.233185,26.510874],[80.233172,26.510881]]}},{"type":"Feature","properties":{"osmId":"way/1555356942","kind":"corridor","name":null,"level":"1","highway":"footway"},"geometry":{"type":"LineString","coordinates":[[80.233464,26.511166],[80.233446,26.511183]]}},{"type":"Feature","properties":{"osmId":"way/1555359529","kind":"corridor","name":null,"level":"0","highway":"footway"},"geometry":{"type":"LineString","coordinates":[[80.234256,26.511003],[80.234156,26.51096]]}},{"type":"Feature","properties":{"osmId":"way/1555359530","kind":"corridor","name":null,"level":"2","highway":"footway"},"geometry":{"type":"LineString","coordinates":[[80.234017,26.510649],[80.234074,26.510711]]}},{"type":"Feature","properties":{"osmId":"way/1555359531","kind":"corridor","name":null,"level":"1","highway":"footway"},"geometry":{"type":"LineString","coordinates":[[80.233286,26.511128],[80.233347,26.51109]]}},{"type":"Feature","properties":{"osmId":"way/1555359532","kind":"corridor","name":null,"level":"1","highway":"footway"},"geometry":{"type":"LineString","coordinates":[[80.233386,26.511061],[80.233347,26.51109]]}},{"type":"Feature","properties":{"osmId":"way/1555359533","kind":"corridor","name":"IITK Academic Area Corridors","level":"0","highway":"footway"},"geometry":{"type":"LineString","coordinates":[[80.23316,26.510845],[80.233202,26.510899]]}},{"type":"Feature","properties":{"osmId":"way/1555359535","kind":"corridor","name":null,"level":"0","highway":"footway"},"geometry":{"type":"LineString","coordinates":[[80.233282,26.510979],[80.233279,26.510985]]}},{"type":"Feature","properties":{"osmId":"way/1555359536","kind":"corridor","name":null,"level":"0","highway":"footway"},"geometry":{"type":"LineString","coordinates":[[80.233243,26.511122],[80.233202,26.511097]]}},{"type":"Feature","properties":{"osmId":"way/1555359538","kind":"corridor","name":null,"level":"1","highway":"footway"},"geometry":{"type":"LineString","coordinates":[[80.232884,26.511171],[80.232913,26.511167],[80.232945,26.511171]]}},{"type":"Feature","properties":{"osmId":"way/1555359540","kind":"corridor","name":null,"level":"1","highway":"footway"},"geometry":{"type":"LineString","coordinates":[[80.234,26.512463],[80.233999,26.512386]]}},{"type":"Feature","properties":{"osmId":"way/1556263611","kind":"corridor","name":null,"level":"1","highway":"footway"},"geometry":{"type":"LineString","coordinates":[[80.233253,26.510909],[80.233231,26.510961],[80.233226,26.510939]]}},{"type":"Feature","properties":{"osmId":"way/1556263612","kind":"corridor","name":null,"level":"1","highway":"footway"},"geometry":{"type":"LineString","coordinates":[[80.233755,26.510762],[80.233758,26.510717]]}},{"type":"Feature","properties":{"osmId":"way/1556263613","kind":"corridor","name":null,"level":"1","highway":"footway"},"geometry":{"type":"LineString","coordinates":[[80.233649,26.51078],[80.233651,26.510736]]}},{"type":"Feature","properties":{"osmId":"way/1556263614","kind":"corridor","name":null,"level":"1","highway":"footway"},"geometry":{"type":"LineString","coordinates":[[80.233479,26.510772],[80.233491,26.51073]]}},{"type":"Feature","properties":{"osmId":"way/1556263615","kind":"corridor","name":null,"level":"1","highway":"footway"},"geometry":{"type":"LineString","coordinates":[[80.233394,26.510756],[80.233411,26.510721]]}},{"type":"Feature","properties":{"osmId":"way/1556265954","kind":"corridor","name":null,"level":"1","highway":"footway"},"geometry":{"type":"LineString","coordinates":[[80.233077,26.51161],[80.233079,26.511704]]}},{"type":"Feature","properties":{"osmId":"way/1556271106","kind":"stairs","name":null,"level":"0;1","highway":"steps"},"geometry":{"type":"LineString","coordinates":[[80.23291,26.511059],[80.232905,26.511122]]}},{"type":"Feature","properties":{"osmId":"way/1556295245","kind":"corridor","name":"IITK Academic Area Corridors","level":"0","highway":"footway"},"geometry":{"type":"LineString","coordinates":[[80.233202,26.510899],[80.233213,26.510852]]}},{"type":"Feature","properties":{"osmId":"way/1556295246","kind":"corridor","name":null,"level":"1","highway":"footway"},"geometry":{"type":"LineString","coordinates":[[80.23289,26.511501],[80.232939,26.511546]]}},{"type":"Feature","properties":{"osmId":"way/1556295247","kind":"stairs","name":null,"level":"0;1","highway":"steps"},"geometry":{"type":"LineString","coordinates":[[80.233265,26.511452],[80.233241,26.511446]]}},{"type":"Feature","properties":{"osmId":"way/1556295248","kind":"stairs","name":null,"level":"0;1","highway":"steps"},"geometry":{"type":"LineString","coordinates":[[80.232474,26.511451],[80.232546,26.511455]]}},{"type":"Feature","properties":{"osmId":"way/1556501310","kind":"corridor","name":null,"level":"1","highway":"footway"},"geometry":{"type":"LineString","coordinates":[[80.232655,26.511734],[80.232695,26.511617],[80.232722,26.511492]]}},{"type":"Feature","properties":{"osmId":"node/2734116498","kind":"door","level":"0","name":null},"geometry":{"type":"Point","coordinates":[80.232578,26.510935]}},{"type":"Feature","properties":{"osmId":"node/13647137535","kind":"door","level":"1","name":null},"geometry":{"type":"Point","coordinates":[80.233483,26.511186]}},{"type":"Feature","properties":{"osmId":"node/13647137536","kind":"door","level":"0","name":null},"geometry":{"type":"Point","coordinates":[80.233371,26.511075]}},{"type":"Feature","properties":{"osmId":"node/13647137538","kind":"door","level":"1","name":null},"geometry":{"type":"Point","coordinates":[80.233515,26.511215]}},{"type":"Feature","properties":{"osmId":"node/13647137539","kind":"door","level":"0","name":null},"geometry":{"type":"Point","coordinates":[80.233325,26.511116]}},{"type":"Feature","properties":{"osmId":"node/13647137541","kind":"door","level":"1","name":null},"geometry":{"type":"Point","coordinates":[80.233474,26.511255]}},{"type":"Feature","properties":{"osmId":"node/13647137542","kind":"door","level":"1","name":null},"geometry":{"type":"Point","coordinates":[80.233431,26.511217]}},{"type":"Feature","properties":{"osmId":"node/13647137545","kind":"door","level":"0","name":null},"geometry":{"type":"Point","coordinates":[80.233365,26.511151]}},{"type":"Feature","properties":{"osmId":"node/13647137550","kind":"door","level":"1","name":null},"geometry":{"type":"Point","coordinates":[80.233408,26.51111]}},{"type":"Feature","properties":{"osmId":"node/13648953918","kind":"door","level":"1","name":null},"geometry":{"type":"Point","coordinates":[80.233371,26.511076]}},{"type":"Feature","properties":{"osmId":"node/13648953920","kind":"door","level":"1","name":null},"geometry":{"type":"Point","coordinates":[80.233367,26.511151]}},{"type":"Feature","properties":{"osmId":"node/13648953923","kind":"door","level":"1","name":null},"geometry":{"type":"Point","coordinates":[80.233328,26.511116]}},{"type":"Feature","properties":{"osmId":"node/13649039184","kind":"door","level":"0","name":null},"geometry":{"type":"Point","coordinates":[80.232262,26.510819]}},{"type":"Feature","properties":{"osmId":"node/13649039187","kind":"door","level":"1","name":null},"geometry":{"type":"Point","coordinates":[80.232397,26.510804]}},{"type":"Feature","properties":{"osmId":"node/13649039193","kind":"door","level":"1","name":null},"geometry":{"type":"Point","coordinates":[80.232472,26.510855]}},{"type":"Feature","properties":{"osmId":"node/13649048305","kind":"door","level":"1","name":null},"geometry":{"type":"Point","coordinates":[80.232226,26.510845]}},{"type":"Feature","properties":{"osmId":"node/13649048306","kind":"door","level":"1","name":null},"geometry":{"type":"Point","coordinates":[80.232265,26.511056]}},{"type":"Feature","properties":{"osmId":"node/13649048322","kind":"door","level":"0","name":null},"geometry":{"type":"Point","coordinates":[80.232399,26.511071]}},{"type":"Feature","properties":{"osmId":"node/13649048326","kind":"door","level":"1","name":null},"geometry":{"type":"Point","coordinates":[80.23223,26.51103]}},{"type":"Feature","properties":{"osmId":"node/13649048331","kind":"door","level":"1","name":null},"geometry":{"type":"Point","coordinates":[80.232355,26.510794]}},{"type":"Feature","properties":{"osmId":"node/13649048364","kind":"door","level":"1","name":null},"geometry":{"type":"Point","coordinates":[80.232478,26.511017]}},{"type":"Feature","properties":{"osmId":"node/13649048372","kind":"door","level":"1","name":null},"geometry":{"type":"Point","coordinates":[80.232354,26.511079]}},{"type":"Feature","properties":{"osmId":"node/13649048394","kind":"door","level":"1","name":null},"geometry":{"type":"Point","coordinates":[80.232489,26.510935]}},{"type":"Feature","properties":{"osmId":"node/13649048398","kind":"door","level":"1","name":null},"geometry":{"type":"Point","coordinates":[80.232192,26.51096]}},{"type":"Feature","properties":{"osmId":"node/13649048439","kind":"door","level":"1","name":null},"geometry":{"type":"Point","coordinates":[80.232191,26.510916]}},{"type":"Feature","properties":{"osmId":"node/13657838577","kind":"door","level":"1","name":null},"geometry":{"type":"Point","coordinates":[80.232226,26.510844]}},{"type":"Feature","properties":{"osmId":"node/13657840001","kind":"door","level":"1","name":null},"geometry":{"type":"Point","coordinates":[80.232355,26.510794]}},{"type":"Feature","properties":{"osmId":"node/13657840007","kind":"door","level":"0","name":null},"geometry":{"type":"Point","coordinates":[80.232387,26.511143]}},{"type":"Feature","properties":{"osmId":"node/13657840009","kind":"door","level":"1","name":null},"geometry":{"type":"Point","coordinates":[80.2324,26.511071]}},{"type":"Feature","properties":{"osmId":"node/13657840019","kind":"door","level":"1","name":null},"geometry":{"type":"Point","coordinates":[80.232489,26.510935]}},{"type":"Feature","properties":{"osmId":"node/13657840026","kind":"door","level":"1","name":null},"geometry":{"type":"Point","coordinates":[80.232262,26.510819]}},{"type":"Feature","properties":{"osmId":"node/14152492797","kind":"door","level":"1","name":null},"geometry":{"type":"Point","coordinates":[80.23259,26.510955]}},{"type":"Feature","properties":{"osmId":"node/14152528246","kind":"door","level":"1","name":null},"geometry":{"type":"Point","coordinates":[80.233494,26.5112]}},{"type":"Feature","properties":{"osmId":"node/14152528248","kind":"door","level":"1","name":null},"geometry":{"type":"Point","coordinates":[80.233442,26.511233]}},{"type":"Feature","properties":{"osmId":"node/14152575269","kind":"door","level":"2","name":null},"geometry":{"type":"Point","coordinates":[80.234455,26.510783]}},{"type":"Feature","properties":{"osmId":"node/14152575270","kind":"door","level":"2","name":null},"geometry":{"type":"Point","coordinates":[80.234438,26.510929]}},{"type":"Feature","properties":{"osmId":"node/14152575271","kind":"door","level":"2","name":null},"geometry":{"type":"Point","coordinates":[80.234198,26.510637]}},{"type":"Feature","properties":{"osmId":"node/14152575272","kind":"door","level":"2","name":null},"geometry":{"type":"Point","coordinates":[80.234059,26.510734]}},{"type":"Feature","properties":{"osmId":"node/14152575273","kind":"door","level":"0","name":null},"geometry":{"type":"Point","coordinates":[80.234458,26.51076]}},{"type":"Feature","properties":{"osmId":"node/14152575274","kind":"door","level":"0","name":null},"geometry":{"type":"Point","coordinates":[80.234189,26.510645]}},{"type":"Feature","properties":{"osmId":"node/14152575275","kind":"door","level":"0","name":null},"geometry":{"type":"Point","coordinates":[80.234387,26.511006]}},{"type":"Feature","properties":{"osmId":"node/14152575276","kind":"door","level":"0","name":null},"geometry":{"type":"Point","coordinates":[80.234217,26.510971]}},{"type":"Feature","properties":{"osmId":"node/14152575277","kind":"door","level":"0","name":null},"geometry":{"type":"Point","coordinates":[80.234115,26.510914]}},{"type":"Feature","properties":{"osmId":"node/14152575278","kind":"door","level":"0","name":null},"geometry":{"type":"Point","coordinates":[80.234025,26.510829]}},{"type":"Feature","properties":{"osmId":"node/14152575280","kind":"door","level":"2","name":null},"geometry":{"type":"Point","coordinates":[80.234308,26.511007]}},{"type":"Feature","properties":{"osmId":"node/14152575283","kind":"door","level":"2","name":null},"geometry":{"type":"Point","coordinates":[80.234073,26.510883]}},{"type":"Feature","properties":{"osmId":"node/14152583187","kind":"door","level":"0","name":null},"geometry":{"type":"Point","coordinates":[80.23427,26.512075]}}]}